{
  "type": "FeatureCollection",
  "features": [
    {
      "type": "Feature",
      "properties": {
        "norad_id": 43207,
        "name": "BEIDOU-3 M4 (C22)",
        "group": "beidou",
        "lat": -48.92974887210316,
        "lon": 19.59670704158354,
        "alt_km": 21529.2384355986,
        "timestamp": "2025-12-22T23:36:20.978580+00:00",
        "meta_object_name": "BEIDOU-3 M4 (C22)",
        "meta_object_id": "2018-018A",
        "meta_epoch": "2025-12-22T00:08:46.770432",
        "meta_mean_motion": 1.86231216,
        "meta_eccentricity": 0.00041705,
        "meta_inclination": 56.4932,
        "meta_ra_of_asc_node": 68.9979,
        "meta_arg_of_pericenter": 3.572,
        "meta_mean_anomaly": 356.4799,
        "meta_ephemeris_type": 0,
        "meta_classification_type": "U",
        "meta_norad_cat_id": 43207,
        "meta_element_set_no": 999,
        "meta_rev_at_epoch": 5344,
        "meta_bstar": 0,
        "meta_mean_motion_dot": -3.1e-07,
        "meta_mean_motion_ddot": 0,
        "tle_line1": "1 43207U 18018A   25356.00609688 -.00000031  00000+0  00000+0 0  9995",
        "tle_line2": "2 43207  56.4932  68.9979 0004170   3.5720 356.4799  1.86231216 53443"
      },
      "geometry": {
        "type": "Point",
        "coordinates": [
          19.59670704158354,
          -48.92974887210316
        ]
      }
    },
    {
      "type": "Feature",
      "properties": {
        "norad_id": 43208,
        "name": "BEIDOU-3 M3 (C21)",
        "group": "beidou",
        "lat": -51.902308816153464,
        "lon": -53.46924405652616,
        "alt_km": 21524.915516389334,
        "timestamp": "2025-12-22T23:36:20.978591+00:00",
        "meta_object_name": "BEIDOU-3 M3 (C21)",
        "meta_object_id": "2018-018B",
        "meta_epoch": "2025-12-22T01:44:32.904384",
        "meta_mean_motion": 1.86231411,
        "meta_eccentricity": 0.00070212,
        "meta_inclination": 56.4927,
        "meta_ra_of_asc_node": 68.9999,
        "meta_arg_of_pericenter": 313.8798,
        "meta_mean_anomaly": 46.1114,
        "meta_ephemeris_type": 0,
        "meta_classification_type": "U",
        "meta_norad_cat_id": 43208,
        "meta_element_set_no": 999,
        "meta_rev_at_epoch": 5344,
        "meta_bstar": 0,
        "meta_mean_motion_dot": -3e-07,
        "meta_mean_motion_ddot": 0,
        "tle_line1": "1 43208U 18018B   25356.07260306 -.00000030  00000+0  00000+0 0  9992",
        "tle_line2": "2 43208  56.4927  68.9999 0007021 313.8798  46.1114  1.86231411 53441"
      },
      "geometry": {
        "type": "Point",
        "coordinates": [
          -53.46924405652616,
          -51.902308816153464
        ]
      }
    },
    {
      "type": "Feature",
      "properties": {
        "norad_id": 43245,
        "name": "BEIDOU-3 M9 (C29)",
        "group": "beidou",
        "lat": 51.45970274521057,
        "lon": 61.96365248795961,
        "alt_km": 21526.53305451737,
        "timestamp": "2025-12-22T23:36:20.978603+00:00",
        "meta_object_name": "BEIDOU-3 M9 (C29)",
        "meta_object_id": "2018-029A",
        "meta_epoch": "2025-12-21T18:02:44.382048",
        "meta_mean_motion": 1.8622836,
        "meta_eccentricity": 0.00015407,
        "meta_inclination": 54.3576,
        "meta_ra_of_asc_node": 306.1541,
        "meta_arg_of_pericenter": 290.4225,
        "meta_mean_anomaly": 69.56,
        "meta_ephemeris_type": 0,
        "meta_classification_type": "U",
        "meta_norad_cat_id": 43245,
        "meta_element_set_no": 999,
        "meta_rev_at_epoch": 5259,
        "meta_bstar": 0,
        "meta_mean_motion_dot": -5.9e-07,
        "meta_mean_motion_ddot": 0,
        "tle_line1": "1 43245U 18029A   25355.75190257 -.00000059  00000+0  00000+0 0  9997",
        "tle_line2": "2 43245  54.3576 306.1541 0001540 290.4225  69.5600  1.86228360 52597"
      },
      "geometry": {
        "type": "Point",
        "coordinates": [
          61.96365248795961,
          51.45970274521057
        ]
      }
    },
    {
      "type": "Feature",
      "properties": {
        "norad_id": 43246,
        "name": "BEIDOU-3 M10 (C30)",
        "group": "beidou",
        "lat": 24.53464755780309,
        "lon": 107.01909187979443,
        "alt_km": 21535.21931050346,
        "timestamp": "2025-12-22T23:36:20.978613+00:00",
        "meta_object_name": "BEIDOU-3 M10 (C30)",
        "meta_object_id": "2018-029B",
        "meta_epoch": "2025-12-22T05:22:40.236384",
        "meta_mean_motion": 1.86229249,
        "meta_eccentricity": 0.0004309,
        "meta_inclination": 54.3545,
        "meta_ra_of_asc_node": 306.1644,
        "meta_arg_of_pericenter": 3.3076,
        "meta_mean_anomaly": 356.6961,
        "meta_ephemeris_type": 0,
        "meta_classification_type": "U",
        "meta_norad_cat_id": 43246,
        "meta_element_set_no": 999,
        "meta_rev_at_epoch": 5258,
        "meta_bstar": 0,
        "meta_mean_motion_dot": -5.7e-07,
        "meta_mean_motion_ddot": 0,
        "tle_line1": "1 43246U 18029B   25356.22407681 -.00000057  00000+0  00000+0 0  9991",
        "tle_line2": "2 43246  54.3545 306.1644 0004309   3.3076 356.6961  1.86229249 52585"
      },
      "geometry": {
        "type": "Point",
        "coordinates": [
          107.01909187979443,
          24.53464755780309
        ]
      }
    },
    {
      "type": "Feature",
      "properties": {
        "norad_id": 43539,
        "name": "BEIDOU-2 IGSO-7 (C16)",
        "group": "beidou",
        "lat": 25.768062042499615,
        "lon": -175.77293270911764,
        "alt_km": 36146.782591096424,
        "timestamp": "2025-12-22T23:36:20.978625+00:00",
        "meta_object_name": "BEIDOU-2 IGSO-7 (C16)",
        "meta_object_id": "2018-057A",
        "meta_epoch": "2025-12-15T07:47:07.120608",
        "meta_mean_motion": 1.00256546,
        "meta_eccentricity": 0.00926218,
        "meta_inclination": 55.1766,
        "meta_ra_of_asc_node": 164.6485,
        "meta_arg_of_pericenter": 235.2644,
        "meta_mean_anomaly": 271.8458,
        "meta_ephemeris_type": 0,
        "meta_classification_type": "U",
        "meta_norad_cat_id": 43539,
        "meta_element_set_no": 999,
        "meta_rev_at_epoch": 2728,
        "meta_bstar": 0,
        "meta_mean_motion_dot": -2.3e-07,
        "meta_mean_motion_ddot": 0,
        "tle_line1": "1 43539U 18057A   25349.32438797 -.00000023  00000+0  00000+0 0  9995",
        "tle_line2": "2 43539  55.1766 164.6485 0092621 235.2644 271.8458  1.00256546 27289"
      },
      "geometry": {
        "type": "Point",
        "coordinates": [
          -175.77293270911764,
          25.768062042499615
        ]
      }
    },
    {
      "type": "Feature",
      "properties": {
        "norad_id": 43581,
        "name": "BEIDOU-3 M5 (C23)",
        "group": "beidou",
        "lat": -1.1150442430842984,
        "lon": -172.50975221881043,
        "alt_km": 21523.251684903385,
        "timestamp": "2025-12-22T23:36:20.978638+00:00",
        "meta_object_name": "BEIDOU-3 M5 (C23)",
        "meta_object_id": "2018-062A",
        "meta_epoch": "2025-12-20T20:06:28.321920",
        "meta_mean_motion": 1.86228978,
        "meta_eccentricity": 0.00019384,
        "meta_inclination": 54.0899,
        "meta_ra_of_asc_node": 188.3678,
        "meta_arg_of_pericenter": 1.5281,
        "meta_mean_anomaly": 358.5256,
        "meta_ephemeris_type": 0,
        "meta_classification_type": "U",
        "meta_norad_cat_id": 43581,
        "meta_element_set_no": 999,
        "meta_rev_at_epoch": 5031,
        "meta_bstar": 0,
        "meta_mean_motion_dot": 9.5e-07,
        "meta_mean_motion_ddot": 0,
        "tle_line1": "1 43581U 18062A   25354.83782780  .00000095  00000+0  00000+0 0  9992",
        "tle_line2": "2 43581  54.0899 188.3678 0001938   1.5281 358.5256  1.86228978 50311"
      },
      "geometry": {
        "type": "Point",
        "coordinates": [
          -172.50975221881043,
          -1.1150442430842984
        ]
      }
    },
    {
      "type": "Feature",
      "properties": {
        "norad_id": 43582,
        "name": "BEIDOU-3 M6 (C24)",
        "group": "beidou",
        "lat": 54.050935962043155,
        "lon": -80.66540967580781,
        "alt_km": 21505.65084718178,
        "timestamp": "2025-12-22T23:36:20.978649+00:00",
        "meta_object_name": "BEIDOU-3 M6 (C24)",
        "meta_object_id": "2018-062B",
        "meta_epoch": "2025-12-21T18:35:38.750784",
        "meta_mean_motion": 1.86229861,
        "meta_eccentricity": 0.00078414,
        "meta_inclination": 54.0893,
        "meta_ra_of_asc_node": 188.325,
        "meta_arg_of_pericenter": 48.2349,
        "meta_mean_anomaly": 311.8795,
        "meta_ephemeris_type": 0,
        "meta_classification_type": "U",
        "meta_norad_cat_id": 43582,
        "meta_element_set_no": 999,
        "meta_rev_at_epoch": 5033,
        "meta_bstar": 0,
        "meta_mean_motion_dot": 9.4e-07,
        "meta_mean_motion_ddot": 0,
        "tle_line1": "1 43582U 18062B   25355.77475406  .00000094  00000+0  00000+0 0  9990",
        "tle_line2": "2 43582  54.0893 188.3250 0007841  48.2349 311.8795  1.86229861 50338"
      },
      "geometry": {
        "type": "Point",
        "coordinates": [
          -80.66540967580781,
          54.050935962043155
        ]
      }
    }
  ]
}